0 SL-14 DEB
1 19229U 78100Y   13283.11852451  .00000777  00000-0  27874-2 0  4371
2 19229 082.3529 171.3537 0158325 023.3683 103.1682 12.89680089572770
0 SL-14 DEB
1 19229U 78100Y   13283.49065332  .00002007  00000-0  72622-2 0  4386
2 19229 082.3533 171.0966 0157773 021.5873 031.8132 12.89698103572824
0 SL-14 DEB
1 19229U 78100Y   13283.63443247  .00004573  00000-0  10000-3 0  4380
2 19229 082.3370 171.0000 0149260 012.9733 347.5723 12.89666850566801
0 SL-14 DEB
1 19229U 78100Y   13284.20318442  .00004692  00000-0  17026-1 0  4398
2 19229 082.3515 170.6054 0157545 018.8460 101.1081 12.89716951572911
0 SL-14 DEB
1 19229U 78100Y   13286.44019477  .00018324  00000-0  66458-1 0  4415
2 19229 082.3522 169.0599 0157431 013.2091 048.1153 12.89790821573209
0 SL-14 DEB
1 19229U 78100Y   13287.67930807  .00022461  00000-0  81369-1 0  4426
2 19229 082.3545 168.2011 0157483 011.0978 040.9151 12.89844767573365
0 SL-14 DEB
1 19229U 78100Y   13289.46358516  .00024024  00000-0  86912-1 0  4433
2 19229 082.3580 166.9691 0157696 008.3531 044.8810 12.89920794573598
0 SL-14 DEB
1 19229U 78100Y   13291.41649429  .00022184  00000-0  80166-1 0  4448
2 19229 082.3598 165.6170 0157959 005.4379 112.2121 12.89996777573842
0 SL-14 DEB
1 19229U 78100Y   13292.81255975  .00018154  00000-0  65568-1 0  4454
2 19229 082.3615 164.6502 0158129 003.2531 114.5257 12.90046641574020
0 SL-14 DEB
1 19229U 78100Y   13293.82303907  .00017985  00000-0  64930-1 0  4469
2 19229 082.3638 163.9514 0158263 001.7260 126.5404 12.90072899574156
0 SL-14 DEB
1 19229U 78100Y   13294.82927731  .00015725  00000-0  56755-1 0  4474
2 19229 082.3648 163.2565 0158342 000.1472 119.0124 12.90097074574284
0 SL-14 DEB
1 19229U 78100Y   13296.14875125  .00013143  00000-0  47423-1 0  4485
2 19229 082.3666 162.3451 0158393 357.9863 126.1981 12.90123923574453
